[{"OBJECT_NAME":"OBJECT L","OBJECT_ID":"2023-085L","EPOCH":"2026-03-09T23:02:21.999840","MEAN_MOTION":15.29079976,"ECCENTRICITY":0.0005428,"INCLINATION":97.486,"RA_OF_ASC_NODE":178.8598,"ARG_OF_PERICENTER":50.8528,"MEAN_ANOMALY":309.3193,"EPHEMERIS_TYPE":0,"CLASSIFICATION_TYPE":"U","NORAD_CAT_ID":57014,"ELEMENT_SET_NO":999,"REV_AT_EPOCH":15144,"BSTAR":0.00063462603,"MEAN_MOTION_DOT":0.00017871,"MEAN_MOTION_DDOT":0},{"OBJECT_NAME":"STARLINK-32631","OBJECT_ID":"2024-231T","EPOCH":"2026-03-09T15:26:14.296992","MEAN_MOTION":15.30195965,"ECCENTRICITY":0.000128,"INCLINATION":53.1611,"RA_OF_ASC_NODE":206.8965,"ARG_OF_PERICENTER":84.9118,"MEAN_ANOMALY":275.2028,"EPHEMERIS_TYPE":0,"CLASSIFICATION_TYPE":"U","NORAD_CAT_ID":62235,"ELEMENT_SET_NO":999,"REV_AT_EPOCH":7193,"BSTAR":0.0012968,"MEAN_MOTION_DOT":0.0003824,"MEAN_MOTION_DDOT":0}]
